BEIDOU-3 M17 (C36)      
1 43706U 18093A   26177.50233032  .00000095  00000+0  00000+0 0  9994
2 43706  54.1697 181.9800 0010136 292.4713 110.1482  1.86228594 51716
BEIDOU-3 M18 (C37)      
1 43707U 18093B   26177.30216318  .00000097  00000+0  00000+0 0  9993
2 43707  54.1702 181.9788 0008135 321.1510  38.8204  1.86226640 51707
GPS BIII-1  (PRN 04)    
1 43873U 18109A   26177.15649352 -.00000064  00000+0  00000+0 0  9991
2 43873  55.6873  91.8327 0038420 197.7328 282.2646  2.00562253 55257
BEIDOU-3 IGSO-1 (C38)   
1 44204U 19023A   26175.54148515 -.00000226  00000+0  00000+0 0  9992
2 44204  58.7053  37.5725 0025747 224.9564 323.4804  1.00289953  7288
BEIDOU-2 G8 (C01)       
1 44231U 19027A   26177.76552069 -.00000238  00000+0  00000+0 0  9998
2 44231   1.6828  74.5266 0009915 284.8441 335.5852  1.00268875 26170
COSMOS 2534 (758)       
1 44299U 19030A   26177.61852613  .00000104  00000+0  00000+0 0  9999
2 44299  64.3693 192.2990 0013570 275.0166 259.5182  2.13102489 55121
BEIDOU-3 IGSO-2 (C39)   
1 44337U 19035A   26177.85739221 -.00000073  00000+0  00000+0 0  9998
2 44337  55.2494 158.7780 0039593 216.4480 327.7946  1.00263830 25763
GPS BIII-2  (PRN 18)    
1 44506U 19056A   26176.86217744 -.00000105  00000+0  00000+0 0  9996
2 44506  55.6325 330.7975 0062408 197.6705 333.6981  2.00570107 50242
BEIDOU-3 M24 (C46)      
1 44542U 19061A   26177.37068053  .00000097  00000+0  00000+0 0  9995
2 44542  54.3965 182.4177 0008516 358.5179   1.5103  1.86229234 45962
BEIDOU-3 M23 (C45)      
1 44543U 19061B   26177.23956123  .00000098  00000+0  00000+0 0  9996
2 44543  54.3955 182.3905 0005822 338.2299 205.4302  1.86227611 45968
EUTELSAT 5 WEST B (EGN*)
1 44624U 19067A   26177.73592480 -.00000031  00000+0  00000+0 0  9997
2 44624   0.0625   5.4393 0003427  89.7934  79.5512  1.00271612 24538
BEIDOU-3 M22 (C44)      
1 44793U 19078A   26177.21063068 -.00000101  00000+0  00000+0 0  9992
2 44793  53.9269 299.5096 0006246  51.5881 308.4637  1.86227239 44817
BEIDOU-3 M21 (C43)      
1 44794U 19078B   26177.35052465 -.00000100  00000+0  00000+0 0  9996
2 44794  53.8996 299.4656 0004077  50.4029 309.6291  1.86227884 44823
COSMOS 2544 (759)       
1 44850U 19088A   26176.94531591 -.00000063  00000+0  00000+0 0  9994
2 44850  65.5707  73.4383 0012923 257.6247 102.2670  2.13102928 50901
BEIDOU-3 M19 (C41)      
1 44864U 19090A   26177.32812167 -.00000086  00000+0  00000+0 0  9991
2 44864  56.5668  62.4878 0017504 297.5955 244.8186  1.86231645 44409
BEIDOU-3 M20 (C42)      
1 44865U 19090B   26177.15791703 -.00000087  00000+0  00000+0 0  9996
2 44865  56.5685  62.5279 0015273 312.0808 205.8058  1.86231543 44385
BEIDOU-3 G2 (C60)       
1 45344U 20017A   26177.75273124 -.00000132  00000+0  00000+0 0  9999
2 45344   2.8837  47.5039 0002541  38.6328 179.8110  1.00272051 23358
